#cP2022  4  4  0  0  0.00000000     576 d+D   IGb14 EXT AIUB
## 2204  86400.00000000   300.00000000 59673 0.0000000000000
+   68   G01G02G03G04G05G06G07G08G09G10G11G12G13G14G15G16G17
+        G18G19G20G21G22G23G24G25G26G27G28G29G30G31G32R01R02
+        R03R04R05R07R08R09R12R13R14R15R17R18R19R20R21R22R24
+        E01E02E03E04E05E07E08E09E14E18E19E21E24E25E27E30E31
+          0  0  0  0  0  0  0  0  0  0  0  0  0  0  0  0  0
++         6  8  6  7  7  6  7  6  6  6  9  7  7  7  7  7  7
++         8  7  7  8  7  6  6  6  6  6  7  7  6  7  5  8  6
++         6  6  7  6  6  6  7  8  7  7  8  7  8  9  8  8  7
++         6  6  6  6  6  6  5  6  7  7  7  6  7  6  6  7  6
++         0  0  0  0  0  0  0  0  0  0  0  0  0  0  0  0  0
%c M  cc GPS ccc cccc cccc cccc cccc ccccc ccccc ccccc ccccc
%c cc cc ccc ccc cccc cccc cccc cccc ccccc ccccc ccccc ccccc
%f  1.2500000  1.025000000  0.00000000000  0.000000000000000
%f  0.0000000  0.000000000  0.00000000000  0.000000000000000
%i    0    0    0    0      0      0      0      0         0
%i    0    0    0    0      0      0      0      0         0
/* Center for Orbit Determination in Europe (CODE)          
/* Ultra-rapid GRE orbits starting year-day 22094 00 hour   
/* Observed/predicted: 24/24 hours (data used up to 094X)   
/* PCV:IGS14      OL/AL:FES2014b NONE     YN ORB:CoN CLK:BRD
*  2022  4  5 11 30  0.00000000
PG01 -21903.562689 -14428.408947  -5543.862904    392.125227               P   P
PG02   3684.525329  16751.661680  20900.911225   -652.919398               P   P
PG03 -12644.471129 -16823.242316  16167.362349   -194.050495               P   P
PG04 -15403.966040  -6993.246939  20504.175723   -178.365273               P   P
PG05   5558.755835  25740.031871  -2921.820855    -77.207752               P   P
PG06 -12860.890741   9529.510627  21277.559119    255.840408               P   P
PG07 -24678.728700  -4272.250942  -9160.206736    319.150033               P   P
PG08  -6478.462338 -13923.843035 -21676.040868    -62.667415               P   P
PG09 -21960.018359   3451.619743  14491.940128   -345.654644               P   P
PG10  11995.266073 -13255.920654 -19397.755472   -369.179197               P   P
PG11   2819.285422  17233.627564  20013.610291    -49.415174               P   P
PG12   9775.901695  20519.826521  13572.919565   -195.683970               P   P
PG13  -3380.675409  17276.470331 -19987.723799    288.836900               P   P
PG14 -13274.829295  12047.446437 -19577.890838   -100.141561               P   P
PG15   9091.649797  13378.037197 -21456.985154    -71.314864               P   P
PG16    412.047079 -26282.467387    751.648203   -488.474631               P   P
PG17 -22317.642350  14448.815459    766.866359    596.410224               P   P
PG18  24386.894692   4411.070153  -9700.488696    203.030144               P   P
PG19 -19446.414420  16364.213780   7097.734861    140.355467               P   P
PG20    979.617320  25614.279430   7406.640190    515.969129               P   P
PG21 -15710.298004 -16127.148258 -13936.081206    160.153766               P   P
PG22  16546.146115 -18144.110492  10292.888399    238.542905               P   P
PG23  15040.696637  -1107.716597 -21874.463324    -12.582398               P   P
PG24  20102.600059  14980.403138  -9667.056248    260.468754               P   P
PG25  15132.775977   7336.997631  20333.417969    307.892948               P   P
PG26   5964.689165 -22428.566735  12546.887875    196.309123               P   P
PG27   5741.684485 -18915.211587 -17748.786295    175.210682               P   P
PG28  -9535.057997  20301.677428 -13886.505482    373.750257               P   P
PG29  21462.724936   -732.992555  15618.773580   -499.595371               P   P
PG30 -20818.225814   3259.295059 -16241.437678   -522.312636               P   P
PG31  11112.121820 -11290.954682  21249.108927   -172.082792               P   P
PG32  20247.160983 -16850.707843   2594.940460    -99.037169               P   P
PR01    823.873932 -19177.642090  16814.867585      7.577355               P   P
PR02 -11121.424989  -2212.024751  22901.844871    514.647457               P   P
PR03 -15592.901566  14431.257262  14206.630218     54.407269               P   P
PR04 -11376.866807  22722.361164  -2236.736732    135.220838               P   P
PR05   -976.416723  18555.025442 -17470.559302     90.611107               P   P
PR07  15540.850897 -14980.574810 -13511.004341     33.491828               P   P
PR08  11156.708577 -22793.323245   2517.743150    -64.397463               P   P
PR09  16658.681267  13609.901277  13664.006548     48.133437               P   P
PR12 -11758.471854 -22341.220981   3592.642652     17.759390               P   P
PR13 -16506.349506 -14725.870998 -12720.420736    -20.422744               P   P
PR14 -11388.595999   2476.410951 -22684.457349     76.177837               P   P
PR15    167.712806  17377.847894 -18657.810523     97.054675               P   P
PR17 -23791.477781   4131.275569   8179.761416    515.096126               P   P
PR18 -11483.299345   9425.158746  20765.885920    112.568382               P   P
PR19   5507.141529  10164.857668  22735.267879   -184.229506               P   P
PR20  22875.228804   4889.080279  10119.219952    -68.045633               P   P
PR21  23207.458011  -4591.533841  -9564.937513   -290.910360               P   P
PR22  10490.059653  -9492.979096 -21211.887948   -174.954409               P   P
PR24 -23346.325797  -4229.726046  -9343.870438     87.620825               P   P
PE01   3440.075269  29107.509283  -4172.237476   -610.467462               P   P
PE02  -3557.342270 -29100.683076   4002.664419    290.857366               P   P
PE03   4236.568704 -22209.904267  19113.093505   -544.790588               P   P
PE04  13948.996597  10207.289064 -24017.978595   -999.911056               P   P
PE05  20278.631790 -21373.395151   2868.119542   -193.710053               P   P
PE07 -24302.008173   8102.725048  14833.040547   -655.508105               P   P
PE08 -14158.684461  -9777.657920  24090.075914   -507.135531               P   P
PE09  24251.223801  -8450.355799 -14722.463973   -473.705044               P   P
PE14 -20522.412107  -6999.388326 -20258.362612  -1803.262197               P   P
PE18  25732.959558  -7842.811697   7854.881180  -1600.663446               P   P
PE19  -6682.503492  22798.933932 -17646.648206  -2502.212808               P   P
PE21  -8911.399996  20584.180718 -19323.968523   -726.660462               P   P
PE24  17177.492727   1770.537119  24026.333484   -544.207037               P   P
PE25   9069.229906 -20356.019705  19478.590705   -569.306240               P   P
PE27 -16953.782332   -238.200744 -24264.051629   -269.271633               P   P
PE30 -14522.748211 -21607.760151 -14082.350075   -405.975679               P   P
PE31  14957.641487  20761.524092  14886.753497   -494.593383               P   P
EOF
